{
  "norad_id": 41556,
  "name": "ZIYUAN 3-02 (ZY 3-02)",
  "history": [
    {
      "epoch": "2026-03-28T22:42:41.948640Z",
      "apogee_km": 511.05534015749254,
      "perigee_km": 493.2619324006864,
      "latitude_deg": -7.19217042735233e-05,
      "longitude_deg": -1.7885470913253232,
      "height_km": 512.8041108688532,
      "semi_major_axis_km": 6880.295636279089,
      "eccentricity": 0.00129307,
      "inclination_deg": 97.3875,
      "raan_deg": 165.2457,
      "arg_perigee_deg": 212.0058,
      "mean_anomaly_deg": 148.0393,
      "mean_motion_rev_day": 15.21220301
    },
    {
      "epoch": "2026-03-29T05:01:35.074272Z",
      "apogee_km": 511.0547605573047,
      "perigee_km": 493.232082153826,
      "latitude_deg": 1.4329944266305488e-05,
      "longitude_deg": -96.51115278704636,
      "height_km": 512.8800097114471,
      "semi_major_axis_km": 6880.2804213555655,
      "eccentricity": 0.0012952,
      "inclination_deg": 97.3875,
      "raan_deg": 165.5038,
      "arg_perigee_deg": 211.037,
      "mean_anomaly_deg": 149.0102,
      "mean_motion_rev_day": 15.21225347
    },
    {
      "epoch": "2026-03-30T04:42:23.628384Z",
      "apogee_km": 511.0338079743897,
      "perigee_km": 493.1369734916143,
      "latitude_deg": 3.2836918950829374e-05,
      "longitude_deg": -91.71797270985478,
      "height_km": 513.1254208852271,
      "semi_major_axis_km": 6880.222390733002,
      "eccentricity": 0.0013006,
      "inclination_deg": 97.3874,
      "raan_deg": 166.4718,
      "arg_perigee_deg": 207.4728,
      "mean_anomaly_deg": 152.5822,
      "mean_motion_rev_day": 15.21244593
    },
    {
      "epoch": "2026-03-30T06:17:06.830304Z",
      "apogee_km": 511.04166250847175,
      "perigee_km": 493.125018324401,
      "latitude_deg": 1.934059865716715e-05,
      "longitude_deg": -115.39831245179019,
      "height_km": 513.147332898704,
      "semi_major_axis_km": 6880.220340416437,
      "eccentricity": 0.00130204,
      "inclination_deg": 97.3875,
      "raan_deg": 166.5363,
      "arg_perigee_deg": 207.2614,
      "mean_anomaly_deg": 152.794,
      "mean_motion_rev_day": 15.21245273
    },
    {
      "epoch": "2026-03-30T14:10:42.780288Z",
      "apogee_km": 511.05255272459453,
      "perigee_km": 493.0773371232872,
      "latitude_deg": 4.469616907704022e-05,
      "longitude_deg": 126.20052594836483,
      "height_km": 513.2390741901555,
      "semi_major_axis_km": 6880.201944923941,
      "eccentricity": 0.0013063,
      "inclination_deg": 97.3874,
      "raan_deg": 166.8591,
      "arg_perigee_deg": 206.0649,
      "mean_anomaly_deg": 153.9931,
      "mean_motion_rev_day": 15.21251374
    },
    {
      "epoch": "2026-03-30T22:04:18.634368Z",
      "apogee_km": 511.0593722130334,
      "perigee_km": 493.03906367843865,
      "latitude_deg": 4.210332217720926e-05,
      "longitude_deg": 7.799668646226636,
      "height_km": 513.3197563743076,
      "semi_major_axis_km": 6880.186217945736,
      "eccentricity": 0.00130958,
      "inclination_deg": 97.3874,
      "raan_deg": 167.1818,
      "arg_perigee_deg": 204.9382,
      "mean_anomaly_deg": 155.1223,
      "mean_motion_rev_day": 15.2125659
    },
    {
      "epoch": "2026-03-31T20:10:22.543680Z",
      "apogee_km": 511.09306246122287,
      "perigee_km": 492.9171031069236,
      "latitude_deg": 5.669171486885985e-06,
      "longitude_deg": 36.279226470493505,
      "height_km": 513.5494631352908,
      "semi_major_axis_km": 6880.142082784073,
      "eccentricity": 0.0013209,
      "inclination_deg": 97.3872,
      "raan_deg": 168.0853,
      "arg_perigee_deg": 201.6935,
      "mean_anomaly_deg": 158.3743,
      "mean_motion_rev_day": 15.21271228
    },
    {
      "epoch": "2026-04-01T19:51:08.762400Z",
      "apogee_km": 511.1268754585499,
      "perigee_km": 492.7996643595661,
      "latitude_deg": -6.840438209595414e-05,
      "longitude_deg": 41.082176541961374,
      "height_km": 513.7714977389486,
      "semi_major_axis_km": 6880.100269909058,
      "eccentricity": 0.0013319,
      "inclination_deg": 97.387,
      "raan_deg": 169.0533,
      "arg_perigee_deg": 198.1289,
      "mean_anomaly_deg": 161.9473,
      "mean_motion_rev_day": 15.21285096
    },
    {
      "epoch": "2026-04-02T21:06:36.899136Z",
      "apogee_km": 511.1048123711971,
      "perigee_km": 492.6773451650233,
      "latitude_deg": -1.2333211921398107e-05,
      "longitude_deg": 22.210232105349174,
      "height_km": 513.9202877577678,
      "semi_major_axis_km": 6880.0280787681095,
      "eccentricity": 0.0013392,
      "inclination_deg": 97.3868,
      "raan_deg": 170.0859,
      "arg_perigee_deg": 194.2449,
      "mean_anomaly_deg": 165.8411,
      "mean_motion_rev_day": 15.2130904
    },
    {
      "epoch": "2026-04-02T22:41:19.846176Z",
      "apogee_km": 511.0969727922766,
      "perigee_km": 492.662518323893,
      "latitude_deg": 9.570281525370658e-06,
      "longitude_deg": -1.4690473232316126,
      "height_km": 513.922719155337,
      "semi_major_axis_km": 6880.016745558084,
      "eccentricity": 0.00133971,
      "inclination_deg": 97.3868,
      "raan_deg": 170.1504,
      "arg_perigee_deg": 193.9789,
      "mean_anomaly_deg": 166.1078,
      "mean_motion_rev_day": 15.21312799
    },
    {
      "epoch": "2026-04-03T20:47:20.601024Z",
      "apogee_km": 511.0754123793413,
      "perigee_km": 492.55320746277266,
      "latitude_deg": 2.67289216197342e-05,
      "longitude_deg": 27.02348187717978,
      "height_km": 514.0115233420076,
      "semi_major_axis_km": 6879.951309921057,
      "eccentricity": 0.0013461,
      "inclination_deg": 97.3864,
      "raan_deg": 171.0537,
      "arg_perigee_deg": 190.7286,
      "mean_anomaly_deg": 169.3665,
      "mean_motion_rev_day": 15.21334503
    },
    {
      "epoch": "2026-04-04T06:15:37.681056Z",
      "apogee_km": 511.07554109885587,
      "perigee_km": 492.4943854588719,
      "latitude_deg": -8.84368102486531e-06,
      "longitude_deg": -115.0492576277151,
      "height_km": 514.0473771800905,
      "semi_major_axis_km": 6879.921963278864,
      "eccentricity": 0.00135039,
      "inclination_deg": 97.3862,
      "raan_deg": 171.4411,
      "arg_perigee_deg": 189.4417,
      "mean_anomaly_deg": 170.6567,
      "mean_motion_rev_day": 15.21344237
    },
    {
      "epoch": "2026-04-05T13:49:53.599584Z",
      "apogee_km": 511.1147625591393,
      "perigee_km": 492.32862041616227,
      "latitude_deg": 8.010561537362465e-05,
      "longitude_deg": 131.37872343885562,
      "height_km": 514.1746997433817,
      "semi_major_axis_km": 6879.8586914876505,
      "eccentricity": 0.0013653,
      "inclination_deg": 97.3858,
      "raan_deg": 172.732,
      "arg_perigee_deg": 185.0573,
      "mean_anomaly_deg": 175.0528,
      "mean_motion_rev_day": 15.21365224
    },
    {
      "epoch": "2026-04-05T20:08:44.598048Z",
      "apogee_km": 511.1044306584863,
      "perigee_km": 492.31282031702904,
      "latitude_deg": 4.517046894370503e-05,
      "longitude_deg": 36.66502027811769,
      "height_km": 514.1754562442053,
      "semi_major_axis_km": 6879.845625487757,
      "eccentricity": 0.0013657,
      "inclination_deg": 97.3857,
      "raan_deg": 172.9901,
      "arg_perigee_deg": 184.1992,
      "mean_anomaly_deg": 175.9132,
      "mean_motion_rev_day": 15.21369558
    }
  ]
}